XRISM                   
1 57800U 23137A   23316.13414935  .00005099  00000+0  40865-3 0  9999
2 57800  31.0047 317.6223 0010459 210.3311 149.6719 14.98577449  9926
